[{"OBJECT_NAME":"ICEYE-X7","OBJECT_ID":"2020-068L","EPOCH":"2026-03-09T22:52:28.702272","MEAN_MOTION":15.29152508,"ECCENTRICITY":0.00068409,"INCLINATION":97.7412,"RA_OF_ASC_NODE":31.2076,"ARG_OF_PERICENTER":332.3045,"MEAN_ANOMALY":27.7829,"EPHEMERIS_TYPE":0,"CLASSIFICATION_TYPE":"U","NORAD_CAT_ID":46496,"ELEMENT_SET_NO":999,"REV_AT_EPOCH":29961,"BSTAR":0.0005654802,"MEAN_MOTION_DOT":0.00015947,"MEAN_MOTION_DDOT":0},{"OBJECT_NAME":"STARLINK-34645","OBJECT_ID":"2025-147M","EPOCH":"2026-03-09T17:36:50.930784","MEAN_MOTION":15.30214596,"ECCENTRICITY":7.835e-5,"INCLINATION":53.1608,"RA_OF_ASC_NODE":242.892,"ARG_OF_PERICENTER":102.8545,"MEAN_ANOMALY":257.2543,"EPHEMERIS_TYPE":0,"CLASSIFICATION_TYPE":"U","NORAD_CAT_ID":64766,"ELEMENT_SET_NO":999,"REV_AT_EPOCH":3875,"BSTAR":0.0012597558,"MEAN_MOTION_DOT":0.00037155,"MEAN_MOTION_DDOT":0}]
